[
    {
        "Altitude(m)": 717062.1397539556,
        "Argument of Periapsis(deg)": 0.009112096949301655,
        "Eccentricity": 0.0,
        "Inclination(deg)": 45.0,
        "Latitude(deg)": -43.16228636921524,
        "Longitude(deg)": -156.73857447997128,
        "Mean Anomaly(deg)": 254.68107331798464,
        "RAAN(deg)": 54.99139844683344,
        "Satellite Name": "Constellation 1 257",
        "Satellite Number": 257,
        "Semi-Major Axis(m)": 7083131.272910544,
        "Time(s)": 152
    },
    {
        "Altitude(m)": 717068.5178772415,
        "Argument of Periapsis(deg)": 0.009172044955547059,
        "Eccentricity": 0.0,
        "Inclination(deg)": 45.0,
        "Latitude(deg)": -43.17772070600196,
        "Longitude(deg)": -156.66258680919037,
        "Mean Anomaly(deg)": 254.74177445823454,
        "RAAN(deg)": 54.99134185766787,
        "Satellite Name": "Constellation 1 257",
        "Satellite Number": 257,
        "Semi-Major Axis(m)": 7083131.272910544,
        "Time(s)": 153
    },
    {
        "Altitude(m)": 717074.8725982528,
        "Argument of Periapsis(deg)": 0.009231992961792466,
        "Eccentricity": 0.0,
        "Inclination(deg)": 45.0,
        "Latitude(deg)": -43.19309890931488,
        "Longitude(deg)": -156.58655894901898,
        "Mean Anomaly(deg)": 254.80247559848442,
        "RAAN(deg)": 54.991285268502295,
        "Satellite Name": "Constellation 1 257",
        "Satellite Number": 257,
        "Semi-Major Axis(m)": 7083131.272910544,
        "Time(s)": 154
    },
    {
        "Altitude(m)": 717081.203893596,
        "Argument of Periapsis(deg)": 0.009291940968037872,
        "Eccentricity": 0.0,
        "Inclination(deg)": 45.0,
        "Latitude(deg)": -43.208420921554136,
        "Longitude(deg)": -156.51049100421878,
        "Mean Anomaly(deg)": 254.86317673873432,
        "RAAN(deg)": 54.99122867933672,
        "Satellite Name": "Constellation 1 257",
        "Satellite Number": 257,
        "Semi-Major Axis(m)": 7083131.272910544,
        "Time(s)": 155
    },
    {
        "Altitude(m)": 717087.5117399615,
        "Argument of Periapsis(deg)": 0.009351888974283276,
        "Eccentricity": 0.0,
        "Inclination(deg)": 45.0,
        "Latitude(deg)": -43.22368668525654,
        "Longitude(deg)": -156.4343832482033,
        "Mean Anomaly(deg)": 254.92387787898426,
        "RAAN(deg)": 54.99117209017116,
        "Satellite Name": "Constellation 1 257",
        "Satellite Number": 257,
        "Semi-Major Axis(m)": 7083131.272910544,
        "Time(s)": 156
    },
    {
        "Altitude(m)": 717093.7961141337,
        "Argument of Periapsis(deg)": 0.00941183698052868,
        "Eccentricity": 0.0,
        "Inclination(deg)": 45.0,
        "Latitude(deg)": -43.23889614309785,
        "Longitude(deg)": -156.3582354506492,
        "Mean Anomaly(deg)": 254.98457901923416,
        "RAAN(deg)": 54.99111550100559,
        "Satellite Name": "Constellation 1 257",
        "Satellite Number": 257,
        "Semi-Major Axis(m)": 7083131.272910544,
        "Time(s)": 157
    },
    {
        "Altitude(m)": 717100.0569929646,
        "Argument of Periapsis(deg)": 0.009471784986774088,
        "Eccentricity": 0.0,
        "Inclination(deg)": 45.0,
        "Latitude(deg)": -43.25404923789183,
        "Longitude(deg)": -156.28204788607837,
        "Mean Anomaly(deg)": 255.04528015948404,
        "RAAN(deg)": 54.99105891184002,
        "Satellite Name": "Constellation 1 257",
        "Satellite Number": 257,
        "Semi-Major Axis(m)": 7083131.272910544,
        "Time(s)": 158
    },
    {
        "Altitude(m)": 717106.2943534184,
        "Argument of Periapsis(deg)": 0.009531732993019492,
        "Eccentricity": 0.0,
        "Inclination(deg)": 45.0,
        "Latitude(deg)": -43.269145912592215,
        "Longitude(deg)": -156.20582066146915,
        "Mean Anomaly(deg)": 255.10598129973394,
        "RAAN(deg)": 54.99100232267445,
        "Satellite Name": "Constellation 1 257",
        "Satellite Number": 257,
        "Semi-Major Axis(m)": 7083131.272910544,
        "Time(s)": 159
    },
    {
        "Altitude(m)": 717112.5081725131,
        "Argument of Periapsis(deg)": 0.009591680999264898,
        "Eccentricity": 0.0,
        "Inclination(deg)": 45.0,
        "Latitude(deg)": -43.284186110293625,
        "Longitude(deg)": -156.12955388435287,
        "Mean Anomaly(deg)": 255.16668243998387,
        "RAAN(deg)": 54.99094573350889,
        "Satellite Name": "Constellation 1 257",
        "Satellite Number": 257,
        "Semi-Major Axis(m)": 7083131.272910544,
        "Time(s)": 160
    },
    {
        "Altitude(m)": 717118.698427377,
        "Argument of Periapsis(deg)": 0.009651629005510304,
        "Eccentricity": 0.0,
        "Inclination(deg)": 45.0,
        "Latitude(deg)": -43.29916977423203,
        "Longitude(deg)": -156.05324766281456,
        "Mean Anomaly(deg)": 255.22738358023375,
        "RAAN(deg)": 54.99088914434331,
        "Satellite Name": "Constellation 1 257",
        "Satellite Number": 257,
        "Semi-Major Axis(m)": 7083131.272910544,
        "Time(s)": 161
    },
    {
        "Altitude(m)": 717124.8650952163,
        "Argument of Periapsis(deg)": 0.00971157701175571,
        "Eccentricity": 0.0,
        "Inclination(deg)": 45.0,
        "Latitude(deg)": -43.314096847786026,
        "Longitude(deg)": -155.97690210549078,
        "Mean Anomaly(deg)": 255.2880847204836,
        "RAAN(deg)": 54.99083255517775,
        "Satellite Name": "Constellation 1 257",
        "Satellite Number": 257,
        "Semi-Major Axis(m)": 7083131.272910544,
        "Time(s)": 162
    },
    {
        "Altitude(m)": 717131.0081533219,
        "Argument of Periapsis(deg)": 0.009771525018001118,
        "Eccentricity": 0.0,
        "Inclination(deg)": 45.0,
        "Latitude(deg)": -43.32896727447733,
        "Longitude(deg)": -155.90051748966772,
        "Mean Anomaly(deg)": 255.3487858607335,
        "RAAN(deg)": 54.99077596601217,
        "Satellite Name": "Constellation 1 257",
        "Satellite Number": 257,
        "Semi-Major Axis(m)": 7083131.272910544,
        "Time(s)": 163
    },
    {
        "Altitude(m)": 717137.1275790771,
        "Argument of Periapsis(deg)": 0.00983147302424652,
        "Eccentricity": 0.0,
        "Inclination(deg)": 45.0,
        "Latitude(deg)": -43.34378099797267,
        "Longitude(deg)": -155.8240935888917,
        "Mean Anomaly(deg)": 255.40948700098343,
        "RAAN(deg)": 54.9907193768466,
        "Satellite Name": "Constellation 1 257",
        "Satellite Number": 257,
        "Semi-Major Axis(m)": 7083131.272910544,
        "Time(s)": 164
    },
    {
        "Altitude(m)": 717143.2233499343,
        "Argument of Periapsis(deg)": 0.009891421030491928,
        "Eccentricity": 0.0,
        "Inclination(deg)": 45.0,
        "Latitude(deg)": -43.35853796208335,
        "Longitude(deg)": -155.74763068155139,
        "Mean Anomaly(deg)": 255.47018814123334,
        "RAAN(deg)": 54.990662787681025,
        "Satellite Name": "Constellation 1 257",
        "Satellite Number": 257,
        "Semi-Major Axis(m)": 7083131.272910544,
        "Time(s)": 165
    },
    {
        "Altitude(m)": 717149.2954434555,
        "Argument of Periapsis(deg)": 0.009951369036737332,
        "Eccentricity": 0.0,
        "Inclination(deg)": 45.0,
        "Latitude(deg)": -43.37323811076672,
        "Longitude(deg)": -155.67112887848924,
        "Mean Anomaly(deg)": 255.5308892814832,
        "RAAN(deg)": 54.990606198515465,
        "Satellite Name": "Constellation 1 257",
        "Satellite Number": 257,
        "Semi-Major Axis(m)": 7083131.272910544,
        "Time(s)": 166
    },
    {
        "Altitude(m)": 717155.3438372711,
        "Argument of Periapsis(deg)": 0.010011317042982738,
        "Eccentricity": 0.0,
        "Inclination(deg)": 45.0,
        "Latitude(deg)": -43.38788138812742,
        "Longitude(deg)": -155.59458829109764,
        "Mean Anomaly(deg)": 255.59159042173312,
        "RAAN(deg)": 54.99054960934989,
        "Satellite Name": "Constellation 1 257",
        "Satellite Number": 257,
        "Semi-Major Axis(m)": 7083131.272910544,
        "Time(s)": 167
    },
    {
        "Altitude(m)": 717161.3685091048,
        "Argument of Periapsis(deg)": 0.010071265049228144,
        "Eccentricity": 0.0,
        "Inclination(deg)": 45.0,
        "Latitude(deg)": -43.40246773841779,
        "Longitude(deg)": -155.5180090313187,
        "Mean Anomaly(deg)": 255.65229156198305,
        "RAAN(deg)": 54.990493020184324,
        "Satellite Name": "Constellation 1 257",
        "Satellite Number": 257,
        "Semi-Major Axis(m)": 7083131.272910544,
        "Time(s)": 168
    },
    {
        "Altitude(m)": 717167.3694367697,
        "Argument of Periapsis(deg)": 0.01013121305547355,
        "Eccentricity": 0.0,
        "Inclination(deg)": 45.0,
        "Latitude(deg)": -43.416997106039034,
        "Longitude(deg)": -155.4413912116438,
        "Mean Anomaly(deg)": 255.71299270223292,
        "RAAN(deg)": 54.99043643101875,
        "Satellite Name": "Constellation 1 257",
        "Satellite Number": 257,
        "Semi-Major Axis(m)": 7083131.272910544,
        "Time(s)": 169
    },
    {
        "Altitude(m)": 717173.346598163,
        "Argument of Periapsis(deg)": 0.010191161061718957,
        "Eccentricity": 0.0,
        "Inclination(deg)": 45.0,
        "Latitude(deg)": -43.431469435542056,
        "Longitude(deg)": -155.36473494511256,
        "Mean Anomaly(deg)": 255.77369384248283,
        "RAAN(deg)": 54.99037984185319,
        "Satellite Name": "Constellation 1 257",
        "Satellite Number": 257,
        "Semi-Major Axis(m)": 7083131.272910544,
        "Time(s)": 170
    }
]